[{"OBJECT_NAME":"PRAETORIAN SDA_617","OBJECT_ID":"2025-203R","EPOCH":"2026-03-06T13:50:13.386048","MEAN_MOTION":13.83191038,"ECCENTRICITY":0.00087474,"INCLINATION":81.3007,"RA_OF_ASC_NODE":105.7715,"ARG_OF_PERICENTER":108.7614,"MEAN_ANOMALY":251.4492,"EPHEMERIS_TYPE":0,"CLASSIFICATION_TYPE":"U","NORAD_CAT_ID":65580,"ELEMENT_SET_NO":999,"REV_AT_EPOCH":2450,"BSTAR":5.7336212e-5,"MEAN_MOTION_DOT":7.5e-7,"MEAN_MOTION_DDOT":0},{"OBJECT_NAME":"PRAETORIAN SDA_618","OBJECT_ID":"2025-203S","EPOCH":"2026-03-06T19:26:56.540832","MEAN_MOTION":13.84763992,"ECCENTRICITY":0.0010743,"INCLINATION":81.2985,"RA_OF_ASC_NODE":105.4017,"ARG_OF_PERICENTER":109.0506,"MEAN_ANOMALY":251.1816,"EPHEMERIS_TYPE":0,"CLASSIFICATION_TYPE":"U","NORAD_CAT_ID":65581,"ELEMENT_SET_NO":999,"REV_AT_EPOCH":2454,"BSTAR":0.00022387,"MEAN_MOTION_DOT":2.64e-6,"MEAN_MOTION_DDOT":0},{"OBJECT_NAME":"PRAETORIAN SDA_619","OBJECT_ID":"2025-203T","EPOCH":"2026-03-06T08:25:05.034144","MEAN_MOTION":13.83930042,"ECCENTRICITY":0.00091853,"INCLINATION":81.3014,"RA_OF_ASC_NODE":105.9683,"ARG_OF_PERICENTER":108.4245,"MEAN_ANOMALY":251.7911,"EPHEMERIS_TYPE":0,"CLASSIFICATION_TYPE":"U","NORAD_CAT_ID":65582,"ELEMENT_SET_NO":999,"REV_AT_EPOCH":2510,"BSTAR":0.00029030664,"MEAN_MOTION_DOT":3.34e-6,"MEAN_MOTION_DDOT":0},{"OBJECT_NAME":"PRAETORIAN SDA_620","OBJECT_ID":"2025-203U","EPOCH":"2026-03-06T12:05:40.261344","MEAN_MOTION":13.83705885,"ECCENTRICITY":0.00086449,"INCLINATION":81.3001,"RA_OF_ASC_NODE":105.8217,"ARG_OF_PERICENTER":105.1119,"MEAN_ANOMALY":255.0995,"EPHEMERIS_TYPE":0,"CLASSIFICATION_TYPE":"U","NORAD_CAT_ID":65583,"ELEMENT_SET_NO":999,"REV_AT_EPOCH":2449,"BSTAR":0.00033873446,"MEAN_MOTION_DOT":3.86e-6,"MEAN_MOTION_DDOT":0},{"OBJECT_NAME":"PRAETORIAN SDA_621","OBJECT_ID":"2025-203V","EPOCH":"2026-03-06T13:27:07.420320","MEAN_MOTION":13.83787042,"ECCENTRICITY":0.00086699,"INCLINATION":81.2992,"RA_OF_ASC_NODE":105.7187,"ARG_OF_PERICENTER":103.5537,"MEAN_ANOMALY":256.6586,"EPHEMERIS_TYPE":0,"CLASSIFICATION_TYPE":"U","NORAD_CAT_ID":65584,"ELEMENT_SET_NO":999,"REV_AT_EPOCH":2450,"BSTAR":6.9454882e-5,"MEAN_MOTION_DOT":8.9e-7,"MEAN_MOTION_DDOT":0},{"OBJECT_NAME":"PRAETORIAN SDA_601","OBJECT_ID":"2025-203W","EPOCH":"2026-03-06T11:58:51.680928","MEAN_MOTION":13.83484967,"ECCENTRICITY":0.0006526,"INCLINATION":81.3,"RA_OF_ASC_NODE":105.9863,"ARG_OF_PERICENTER":116.4493,"MEAN_ANOMALY":243.7334,"EPHEMERIS_TYPE":0,"CLASSIFICATION_TYPE":"U","NORAD_CAT_ID":65585,"ELEMENT_SET_NO":999,"REV_AT_EPOCH":2448,"BSTAR":0.00038976487,"MEAN_MOTION_DOT":4.41e-6,"MEAN_MOTION_DDOT":0}]
