PRAETORIAN SDA_617      
1 65580U 25203R   26065.57654382  .00000075  00000+0  57336-4 0  9994
2 65580  81.3007 105.7715 0008747 108.7614 251.4492 13.83191038 24509
PRAETORIAN SDA_618      
1 65581U 25203S   26065.81037663  .00000264  00000+0  22387-3 0  9996
2 65581  81.2985 105.4017 0010743 109.0506 251.1816 13.84763992 24545
PRAETORIAN SDA_619      
1 65582U 25203T   26065.35075271  .00000334  00000+0  29031-3 0  9994
2 65582  81.3014 105.9683 0009185 108.4245 251.7911 13.83930042 25101
PRAETORIAN SDA_620      
1 65583U 25203U   26065.50393821  .00000386  00000+0  33873-3 0  9992
2 65583  81.3001 105.8217 0008644 105.1119 255.0995 13.83705885 24498
PRAETORIAN SDA_621      
1 65584U 25203V   26065.56050255  .00000089  00000+0  69455-4 0  9996
2 65584  81.2992 105.7187 0008669 103.5537 256.6586 13.83787042 24505
PRAETORIAN SDA_601      
1 65585U 25203W   26065.49920927  .00000441  00000+0  38976-3 0  9996
2 65585  81.3000 105.9863 0006526 116.4493 243.7334 13.83484967 24489
